STARLINK-4181           
1 52882U 22062BE  26068.14101916 -.00003666  00000+0 -21239-3 0  9994
2 52882  53.2185  16.1555 0001412  94.8856 265.2298 15.08833838205998
LEMUR-2-ESPERANZA       
1 63352U 25061B   26068.87489603  .00006090  00000+0  34973-3 0  9993
2 63352  97.5568  45.1407 0016949 244.8770 115.0702 15.12770807 52576
